NORAD_CAT_ID,OBJECT_NAME,OBJECT_TYPE,EPOCH,MEAN_MOTION,ECCENTRICITY,INCLINATION,RA_OF_ASC_NODE,ARG_OF_PERICENTER,MEAN_ANOMALY,BSTAR,MEAN_MOTION_DOT,MEAN_MOTION_DDOT,TLE_LINE0,TLE_LINE1,TLE_LINE2,SEMIMAJOR_AXIS,PERIOD,APOGEE,PERIGEE,DECAYED
54798.0,STARLINK-5420,PAYLOAD,2023-04-22 22:00:01,15.10502736,0.0001647,53.2174,60.4833,102.2358,175.5764,-0.02842,-0.0044541,0.0,0 STARLINK-5420,1 54798U 22175AS  23112.91668981 -.00445410  00000-0 -28420-1 0  9994,2 54798  53.2174  60.4833 0001647 102.2358 175.5764 15.10502736  1309,6912.803,95.332,535.806,533.529,0.0
54798.0,STARLINK-5420,PAYLOAD,2023-04-23 14:00:01,15.09859112,0.0001529,53.2176,57.4847,97.618,206.5602,-0.029926,-0.0045979,0.0,0 STARLINK-5420,1 54798U 22175AS  23113.58334491 -.00459790  00000-0 -29926-1 0  9992,2 54798  53.2176  57.4847 0001529  97.6180 206.5602 15.09859112  1308,6914.767,95.373,537.689,535.575,0.0
54798.0,STARLINK-5420,PAYLOAD,2023-04-23 16:00:00,15.09755034,0.0001464,53.2175,57.1097,97.7959,299.5828,-0.026987,-0.00415986,0.0,0 STARLINK-5420,1 54798U 22175AS  23113.66667824 -.00415986  00000-0 -26987-1 0  9993,2 54798  53.2175  57.1097 0001464  97.7959 299.5828 15.09755034 19448,6915.085,95.38,537.962,535.938,0.0
54798.0,STARLINK-5420,PAYLOAD,2023-04-24 04:33:05,15.09994986,0.0001843,53.2174,54.7603,54.8026,305.3139,-0.0031722,-0.00052029,0.0,0 STARLINK-5420,1 54798U 22175AS  23114.18965199 -.00052029  00000-0 -31722-2 0  9996,2 54798  53.2174  54.7603 0001843  54.8026 305.3139 15.09994986 19524,6914.352,95.365,537.492,534.943,0.0
54798.0,STARLINK-5420,PAYLOAD,2023-04-24 07:44:01,15.09736098,0.000156,53.2189,54.1707,115.9313,244.184,-0.0051643,-0.00083552,0.0,0 STARLINK-5420,1 54798U 22175AS  23114.32223931 -.00083552  00000-0 -51643-2 0  9992,2 54798  53.2189  54.1707 0001560 115.9313 244.1840 15.09736098 19542,6915.143,95.381,538.086,535.929,0.0
54798.0,STARLINK-5420,PAYLOAD,2023-04-24 18:51:24,15.09636255,0.0001608,53.2185,52.0853,130.2161,229.8972,-0.0047819,-0.00077243,0.0,0 STARLINK-5420,1 54798U 22175AS  23114.78569867 -.00077243  00000-0 -47819-2 0  9993,2 54798  53.2185  52.0853 0001608 130.2161 229.8972 15.09636255 19619,6915.448,95.387,538.425,536.201,0.0
54798.0,STARLINK-5420,PAYLOAD,2023-04-25 14:00:01,15.08812124,0.0001265,53.2173,48.5031,96.5524,279.1501,0.0017068,0.00026959,0.0,0 STARLINK-5420,1 54798U 22175AS  23115.58335648  .00026959  00000-0  17068-2 0  9999,2 54798  53.2173  48.5031 0001265  96.5524 279.1501 15.08812124  1303,6917.966,95.439,540.706,538.955,0.0
54798.0,STARLINK-5420,PAYLOAD,2023-04-26 14:00:01,15.0883542,0.0001241,53.2168,44.0142,99.3714,311.0146,0.0019988,0.00031662,0.0,0 STARLINK-5420,1 54798U 22175AS  23116.58334491  .00031662  00000-0  19988-2 0  9995,2 54798  53.2168  44.0142 0001241  99.3714 311.0146 15.08835420  1302,6917.894,95.438,540.618,538.901,0.0
54798.0,STARLINK-5420,PAYLOAD,2023-04-27 00:00:00,15.089124,0.0001271,53.2166,42.1448,89.9143,64.9887,-0.0077281,-0.00121452,0.0,0 STARLINK-5420,1 54798U 22175AS  23117.00001157 -.00121452  00000-0 -77281-2 0  9992,2 54798  53.2166  42.1448 0001271  89.9143  64.9887 15.08912400  1302,6917.659,95.433,540.403,538.645,0.0
54798.0,STARLINK-5420,PAYLOAD,2023-04-27 14:00:01,15.08805217,0.0001203,53.2165,39.5249,87.5012,357.7806,0.0026613,0.0004228,0.0,0 STARLINK-5420,1 54798U 22175AS  23117.58335648  .00042280  00000-0  26613-2 0  9992,2 54798  53.2165  39.5249 0001203  87.5012 357.7806 15.08805217  1305,6917.987,95.44,540.684,539.019,0.0
54798.0,STARLINK-5420,PAYLOAD,2023-04-28 00:00:00,15.08895542,0.0001216,53.2164,37.6556,88.8158,100.8996,-0.0061177,-0.00096494,0.0,0 STARLINK-5420,1 54798U 22175AS  23118.00001157 -.00096494  00000-0 -61177-2 0  9997,2 54798  53.2164  37.6556 0001216  88.8158 100.8996 15.08895542 20097,6917.711,95.434,540.417,538.734,0.0
54798.0,STARLINK-5420,PAYLOAD,2023-04-28 14:00:01,15.08795707,0.0001069,53.2165,35.0356,104.9389,15.0786,0.0034314,0.0005468,0.0,0 STARLINK-5420,1 54798U 22175AS  23118.58334491  .00054680  00000-0  34314-2 0  9992,2 54798  53.2165  35.0356 0001069 104.9389  15.0786 15.08795707 20186,6918.016,95.44,540.62,539.141,0.0
54798.0,STARLINK-5420,PAYLOAD,2023-04-29 00:35:57,15.08835849,0.0001208,53.219,33.0543,98.1399,261.973,-6.2614e-05,-1.284e-05,0.0,0 STARLINK-5420,1 54798U 22175AS  23119.02497053 -.00001284  00000-0 -62614-4 0  9996,2 54798  53.2190  33.0543 0001208  98.1399 261.9730 15.08835849 20251,6917.893,95.438,540.594,538.922,0.0
54798.0,STARLINK-5420,PAYLOAD,2023-04-29 18:05:11,15.08844096,0.0001184,53.2188,29.7843,88.4221,271.6906,-7.1466e-05,-1.425e-05,0.0,0 STARLINK-5420,1 54798U 22175AS  23119.75360680 -.00001425  00000-0 -71466-4 0  9993,2 54798  53.2188  29.7843 0001184  88.4221 271.6906 15.08844096 20361,6917.868,95.437,540.552,538.914,0.0
54798.0,STARLINK-5420,PAYLOAD,2023-04-30 03:37:29,15.08850877,0.0001245,53.2187,27.9989,95.2979,264.8156,-6.4173e-06,-3.9e-06,0.0,0 STARLINK-5420,1 54798U 22175AS  23120.15103802 -.00000390  00000-0 -64173-5 0  9998,2 54798  53.2187  27.9989 0001245  95.2979 264.8156 15.08850877 20427,6917.847,95.437,540.573,538.851,0.0
54798.0,STARLINK-5420,PAYLOAD,2023-04-30 21:06:45,15.08824375,0.000114,53.2177,24.7283,103.9889,256.123,-7.3004e-06,-4.04e-06,0.0,0 STARLINK-5420,1 54798U 22175AS  23120.87969614 -.00000404  00000-0 -73004-5 0  9997,2 54798  53.2177  24.7283 0001140 103.9889 256.1230 15.08824375 20532,6917.928,95.439,540.582,539.005,0.0
54798.0,STARLINK-5420,PAYLOAD,2023-05-01 03:28:18,15.08831,0.0001144,53.2187,23.537,106.3998,253.712,-2.8549e-05,-7.42e-06,0.0,0 STARLINK-5420,1 54798U 22175AS  23121.14465462 -.00000742  00000-0 -28549-4 0  9998,2 54798  53.2187  23.5370 0001144 106.3998 253.7120 15.08831000 22737,6917.908,95.438,540.564,538.981,0.0
54798.0,STARLINK-5420,PAYLOAD,2023-05-01 20:57:32,15.08844377,0.0001142,53.2187,20.2663,99.9791,260.133,-2.778e-05,-7.3e-06,0.0,0 STARLINK-5420,1 54798U 22175AS  23121.87328862 -.00000730  00000-0 -27780-4 0  9993,2 54798  53.2187  20.2663 0001142  99.9791 260.1330 15.08844377 22840,6917.867,95.437,540.522,538.942,0.0
54798.0,STARLINK-5420,PAYLOAD,2023-05-01 22:32:55,15.08845208,0.0001211,53.219,19.9696,105.8073,254.3053,-9.4073e-06,-4.38e-06,0.0,0 STARLINK-5420,1 54798U 22175AS  23121.93952704 -.00000438  00000-0 -94073-5 0  9993,2 54798  53.2190  19.9696 0001211 105.8073 254.3053 15.08845208 20694,6917.864,95.437,540.567,538.892,0.0
54798.0,STARLINK-5420,PAYLOAD,2023-05-02 01:43:41,15.08849437,0.0001152,53.2189,19.375,94.561,265.5513,1.5991e-05,-3.3e-07,0.0,0 STARLINK-5420,1 54798U 22175AS  23122.07200340 -.00000033  00000-0  15991-4 0  9992,2 54798  53.2189  19.3750 0001152  94.5610 265.5513 15.08849437 22877,6917.852,95.437,540.513,538.92,0.0
54798.0,STARLINK-5420,PAYLOAD,2023-05-02 17:37:33,15.08835415,9.28e-05,53.2187,16.4016,93.7843,266.3255,2.3778e-05,9.1e-07,0.0,0 STARLINK-5420,1 54798U 22175AS  23122.73441220  .00000091  00000-0  23778-4 0  9994,2 54798  53.2187  16.4016 0000928  93.7843 266.3255 15.08835415 20812,6917.894,95.438,540.401,539.117,0.0
54798.0,STARLINK-5420,PAYLOAD,2023-05-02 20:48:19,15.08835982,0.0001219,53.2199,15.8107,95.0107,265.1024,5.1614e-05,5.34e-06,0.0,0 STARLINK-5420,1 54798U 22175AS  23122.86689175  .00000534  00000-0  51614-4 0  9993,2 54798  53.2199  15.8107 0001219  95.0107 265.1024 15.08835982 22992,6917.893,95.438,540.601,538.914,0.0
54798.0,STARLINK-5420,PAYLOAD,2023-05-03 01:34:28,15.08840275,0.0001245,53.22,14.9173,100.1711,259.9422,8.916e-05,1.131e-05,0.0,0 STARLINK-5420,1 54798U 22175AS  23123.06560735  .00001131  00000-0  89160-4 0  9997,2 54798  53.2200  14.9173 0001245 100.1711 259.9422 15.08840275 20864,6917.88,95.438,540.606,538.883,0.0
54798.0,STARLINK-5420,PAYLOAD,2023-05-03 09:31:24,15.08837719,0.0001101,53.2188,13.4291,86.5598,273.552,2.0091e-05,3.2e-07,0.0,0 STARLINK-5420,1 54798U 22175AS  23123.39681128  .00000032  00000-0  20091-4 0  9990,2 54798  53.2188  13.4291 0001101  86.5598 273.5520 15.08837719 23071,6917.887,95.438,540.514,538.991,0.0
54798.0,STARLINK-5420,PAYLOAD,2023-05-03 20:39:07,15.08831171,9.7e-05,53.2184,11.3481,89.6854,270.4249,-0.00012196,-2.228e-05,0.0,0 STARLINK-5420,1 54798U 22175AS  23123.86050182 -.00002228  00000-0 -12196-3 0  9999,2 54798  53.2184  11.3481 0000970  89.6854 270.4249 15.08831171 20984,6917.907,95.438,540.443,539.101,0.0
54798.0,STARLINK-5420,PAYLOAD,2023-05-04 03:00:39,15.08837306,0.0001114,53.2179,10.1558,82.8123,277.2996,-8.7209e-05,-1.675e-05,0.0,0 STARLINK-5420,1 54798U 22175AS  23124.12545734 -.00001675  00000-0 -87209-4 0  9994,2 54798  53.2179  10.1558 0001114  82.8123 277.2996 15.08837306 21021,6917.889,95.438,540.524,538.983,0.0
54798.0,STARLINK-5420,PAYLOAD,2023-05-04 09:22:12,15.08836071,0.0001068,53.2183,8.9665,84.9911,275.1204,-4.242e-05,-9.63e-06,0.0,0 STARLINK-5420,1 54798U 22175AS  23124.39041682 -.00000963  00000-0 -42420-4 0  9991,2 54798  53.2183   8.9665 0001068  84.9911 275.1204 15.08836071 23227,6917.892,95.438,540.496,539.019,0.0
54798.0,STARLINK-5420,PAYLOAD,2023-05-04 20:29:53,15.08840765,0.0001075,53.2177,6.8852,90.2291,269.8824,-1.7933e-05,-5.73e-06,0.0,0 STARLINK-5420,1 54798U 22175AS  23124.85409401 -.00000573  00000-0 -17933-4 0  9997,2 54798  53.2177   6.8852 0001075  90.2291 269.8824 15.08840765 23294,6917.878,95.438,540.487,538.999,0.0
54798.0,STARLINK-5420,PAYLOAD,2023-05-04 23:40:39,15.08844371,0.0001071,53.2179,6.2905,87.2597,272.8518,-4.7313e-06,-3.63e-06,0.0,0 STARLINK-5420,1 54798U 22175AS  23124.98657123 -.00000363  00000-0 -47313-5 0  9990,2 54798  53.2179   6.2905 0001071  87.2597 272.8518 15.08844371 21154,6917.867,95.437,540.473,538.991,0.0
54798.0,STARLINK-5420,PAYLOAD,2023-05-05 21:56:05,15.08810842,0.0001169,53.2182,2.1269,88.0643,272.0483,0.00024849,3.666e-05,0.0,0 STARLINK-5420,1 54798U 22175AS  23125.91394834  .00003666  00000-0  24849-3 0  9995,2 54798  53.2182   2.1269 0001169  88.0643 272.0483 15.08810842 23459,6917.97,95.439,540.643,539.026,0.0
